ORBCOMM FM115 [+]       
1 41186U 15081H   24026.83042611  .00001310  00000+0  30399-3 0  9995
2 41186  46.9993 288.3052 0001115 267.0611  93.0148 14.60307819433566
ORBCOMM FM108 [+]       
1 41187U 15081J   24027.26898003  .00001959  00000+0  47625-3 0  9997
2 41187  47.0061 337.2526 0001726 154.3446 205.7525 14.56227049432861
ORBCOMM FM117 [+]       
1 41188U 15081K   24026.96049193  .00001792  00000+0  43889-3 0  9995
2 41188  47.0022 337.6347 0002389 168.2574 191.8367 14.56229703432864
ORBCOMM FM116 [+]       
1 41189U 15081L   24025.98941413  .00002405  00000+0  57607-3 0  9998
2 41189  47.0016  72.0193 0003225 252.8658 107.1874 14.56230538431534
